{"type":"FeatureCollection","name":"shortlist","crs":{"type":"name","properties":{"name":"urn:ogc:def:crs:OGC:1.3:CRS84"}},"features":[{"type":"Feature","properties":{"cell_id":"1045_13863","clipped_area_km2":0.25,"serious_count":7,"density_count":0,"rank":40,"suburbs":"Yatala, Stapylton","holdout_serious_count":1},"geometry":{"type":"Polygon","coordinates":[[[153.23336740495398,-27.740693458045488],[153.23335778791423,-27.736179675584385],[153.22828482565865,-27.73618813857571],[153.2282942336382,-27.740701922648054],[153.23336740495398,-27.740693458045488]]]}},{"type":"Feature","properties":{"cell_id":"1047_13859","clipped_area_km2":0.25,"serious_count":8,"density_count":0,"rank":21,"suburbs":"Ormeau, Yatala","holdout_serious_count":0},"geometry":{"type":"Polygon","coordinates":[[[153.24355390478357,-27.758731057778554],[153.2435438602993,-27.7542172904469],[153.2384700660295,-27.754226132157093],[153.23847990126004,-27.75873990117135],[153.24355390478357,-27.758731057778554]]]}},{"type":"Feature","properties":{"cell_id":"1050_13852","clipped_area_km2":0.25,"serious_count":8,"density_count":0,"rank":22,"suburbs":"Ormeau","holdout_serious_count":1},"geometry":{"type":"Polygon","coordinates":[[[153.25885067627712,-27.790299662414622],[153.2588399866784,-27.78578592100977],[153.25376473376224,-27.78579533365236],[153.25377521376822,-27.790309076847084],[153.25885067627712,-27.790299662414622]]]}},{"type":"Feature","properties":{"cell_id":"1060_13836","clipped_area_km2":0.25,"serious_count":9,"density_count":0,"rank":15,"suburbs":"Upper Coomera, Coomera","holdout_serious_count":1},"geometry":{"type":"Polygon","coordinates":[[[153.3098101288395,-27.86241440791203],[153.30979729579397,-27.857900733676725],[153.30471871062366,-27.857912044463582],[153.30473133330187,-27.862425720845934],[153.3098101288395,-27.86241440791203]]]}},{"type":"Feature","properties":{"cell_id":"1060_13837","clipped_area_km2":0.25,"serious_count":8,"density_count":0,"rank":23,"suburbs":"Coomera, Upper Coomera","holdout_serious_count":4},"geometry":{"type":"Polygon","coordinates":[[[153.30979729579397,-27.857900733676725],[153.3097844657239,-27.853387056481452],[153.30470609087217,-27.85339836512143],[153.30471871062366,-27.857912044463582],[153.30979729579397,-27.857900733676725]]]}},{"type":"Feature","properties":{"cell_id":"1061_13832","clipped_area_km2":0.25,"serious_count":11,"density_count":0,"rank":4,"suburbs":"Oxenford, Upper Coomera","holdout_serious_count":1},"geometry":{"type":"Polygon","coordinates":[[[153.31494112530407,-27.880457566599077],[153.3149280697893,-27.875943906390074],[153.30984864583442,-27.875955412854925],[153.30986149078723,-27.88046907524717],[153.31494112530407,-27.880457566599077]]]}},{"type":"Feature","properties":{"cell_id":"1061_13835","clipped_area_km2":0.25,"serious_count":10,"density_count":0,"rank":9,"suburbs":"Coomera, Upper Coomera","holdout_serious_count":1},"geometry":{"type":"Polygon","coordinates":[[[153.31490196783832,-27.866916577088144],[153.31488892140118,-27.862402907995847],[153.3098101288395,-27.86241440791203],[153.3098229648611,-27.866928079187037],[153.31490196783832,-27.866916577088144]]]}},{"type":"Feature","properties":{"cell_id":"1062_13826","clipped_area_km2":0.25,"serious_count":15,"density_count":0,"rank":2,"suburbs":"Helensvale, Oxenford","holdout_serious_count":8},"geometry":{"type":"Polygon","coordinates":[[[153.32010041786197,-27.907527756557588],[153.32008713332291,-27.903014116343513],[153.3150064482932,-27.903025823211845],[153.31501952197775,-27.907539465645726],[153.32010041786197,-27.907527756557588]]]}},{"type":"Feature","properties":{"cell_id":"1062_13830","clipped_area_km2":0.25,"serious_count":17,"density_count":0,"rank":1,"suburbs":"Helensvale, Oxenford","holdout_serious_count":5},"geometry":{"type":"Polygon","coordinates":[[[153.32004729817444,-27.889473177921637],[153.32003402594606,-27.884959525855503],[153.31495418384586,-27.88497122384635],[153.31496724541512,-27.889484878131583],[153.32004729817444,-27.889473177921637]]]}},{"type":"Feature","properties":{"cell_id":"1062_13831","clipped_area_km2":0.25,"serious_count":8,"density_count":0,"rank":24,"suburbs":"Helensvale, Oxenford","holdout_serious_count":3},"geometry":{"type":"Polygon","coordinates":[[[153.32003402594606,-27.884959525855503],[153.320020756794,-27.880445870827153],[153.31494112530407,-27.880457566599077],[153.31495418384586,-27.88497122384635],[153.32003402594606,-27.884959525855503]]]}},{"type":"Feature","properties":{"cell_id":"1066_13806","clipped_area_km2":0.25,"serious_count":8,"density_count":0,"rank":25,"suburbs":"Nerang","holdout_serious_count":0},"geometry":{"type":"Polygon","coordinates":[[[153.34070721757337,-27.997751043462582],[153.34069302402094,-27.99323747183385],[153.33560812525775,-27.99324997517729],[153.33562210697886,-27.99776354917173],[153.34070721757337,-27.997751043462582]]]}},{"type":"Feature","properties":{"cell_id":"1066_13807","clipped_area_km2":0.25,"serious_count":9,"density_count":0,"rank":16,"suburbs":"Nerang","holdout_serious_count":5},"geometry":{"type":"Polygon","coordinates":[[[153.34069302402094,-27.99323747183385],[153.3406788337541,-27.98872389723458],[153.33559414677316,-27.9887363982125],[153.33560812525775,-27.99324997517729],[153.34069302402094,-27.99323747183385]]]}},{"type":"Feature","properties":{"cell_id":"1066_13822","clipped_area_km2":0.25,"serious_count":8,"density_count":0,"rank":26,"suburbs":"Helensvale","holdout_serious_count":0},"geometry":{"type":"Polygon","coordinates":[[[153.3404805146772,-27.925533541114657],[153.34046637362405,-27.921019921995107],[153.3353848574991,-27.921032387513275],[153.33539878750443,-27.92554600899548],[153.3404805146772,-27.925533541114657]]]}},{"type":"Feature","properties":{"cell_id":"1067_13810","clipped_area_km2":0.25,"serious_count":9,"density_count":0,"rank":17,"suburbs":"Nerang, Gaven","holdout_serious_count":2},"geometry":{"type":"Polygon","coordinates":[[[153.34573472335438,-27.9796840549749],[153.34572033130613,-27.97517047386641],[153.34063628266117,-27.9751831556167],[153.34065046307478,-27.9796967391257],[153.34573472335438,-27.9796840549749]]]}},{"type":"Feature","properties":{"cell_id":"1067_13815","clipped_area_km2":0.25,"serious_count":10,"density_count":0,"rank":10,"suburbs":"Gaven, Arundel","holdout_serious_count":1},"geometry":{"type":"Polygon","coordinates":[[[153.34566279642954,-27.957116119740864],[153.34564842103657,-27.95260252378815],[153.34056542983004,-27.952615193538854],[153.34057959383324,-27.9571287918911],[153.34566279642954,-27.957116119740864]]]}},{"type":"Feature","properties":{"cell_id":"1067_13816","clipped_area_km2":0.25,"serious_count":11,"density_count":0,"rank":5,"suburbs":"Arundel, Gaven","holdout_serious_count":6},"geometry":{"type":"Polygon","coordinates":[[[153.34564842103657,-27.95260252378815],[153.3456340489729,-27.94808892486754],[153.34055126910712,-27.948101592218915],[153.34056542983004,-27.952615193538854],[153.34564842103657,-27.95260252378815]]]}},{"type":"Feature","properties":{"cell_id":"1072_13803","clipped_area_km2":0.25,"serious_count":8,"density_count":0,"rank":27,"suburbs":"Carrara","holdout_serious_count":3},"geometry":{"type":"Polygon","coordinates":[[[153.3712642254828,-28.01121271249479],[153.37124875021195,-28.00669916472447],[153.36616323626754,-28.006712803859223],[153.36617849956363,-28.011226354209313],[153.3712642254828,-28.01121271249479]]]}},{"type":"Feature","properties":{"cell_id":"1072_13809","clipped_area_km2":0.25,"serious_count":8,"density_count":0,"rank":28,"suburbs":"Molendinar, Ashmore","holdout_serious_count":0},"geometry":{"type":"Polygon","coordinates":[[[153.37117142757006,-27.98413138128874],[153.37115597377976,-27.97961781568697],[153.3660717306544,-27.97963143934751],[153.3660869727641,-27.98414500752779],[153.37117142757006,-27.98413138128874]]]}},{"type":"Feature","properties":{"cell_id":"1073_13820","clipped_area_km2":0.25,"serious_count":10,"density_count":0,"rank":11,"suburbs":"Coombabah, Arundel","holdout_serious_count":1},"geometry":{"type":"Polygon","coordinates":[[[153.37608375799658,-27.934468210894995],[153.37606813238656,-27.929954615243442],[153.37098621808622,-27.92996839806365],[153.37100163255485,-27.934481996326948],[153.37608375799658,-27.934468210894995]]]}},{"type":"Feature","properties":{"cell_id":"1074_13810","clipped_area_km2":0.25,"serious_count":11,"density_count":0,"rank":6,"suburbs":"Ashmore, Molendinar","holdout_serious_count":1},"geometry":{"type":"Polygon","coordinates":[[[153.3813244492478,-27.97959000466487],[153.3813085757741,-27.975076441355583],[153.37622455148383,-27.975090438167218],[153.37624021332724,-27.97960400412593],[153.3813244492478,-27.97959000466487]]]}},{"type":"Feature","properties":{"cell_id":"1074_13813","clipped_area_km2":0.25,"serious_count":8,"density_count":0,"rank":29,"suburbs":"Molendinar, Southport","holdout_serious_count":0},"geometry":{"type":"Polygon","coordinates":[[[153.38127683985172,-27.966049305824566],[153.38126097740175,-27.96153573360347],[153.37617758770847,-27.961549722468128],[153.37619323867509,-27.966063297338003],[153.38127683985172,-27.966049305824566]]]}},{"type":"Feature","properties":{"cell_id":"1076_13810","clipped_area_km2":0.25,"serious_count":8,"density_count":0,"rank":30,"suburbs":"Southport, Ashmore","holdout_serious_count":0},"geometry":{"type":"Polygon","coordinates":[[[153.39149291001237,-27.97956144204473],[153.39147661328,-27.975047884140967],[153.3863925963892,-27.975062256679998],[153.38640868149253,-27.979575817304298],[153.39149291001237,-27.97956144204473]]]}},{"type":"Feature","properties":{"cell_id":"1079_13782","clipped_area_km2":0.25,"serious_count":8,"density_count":0,"rank":31,"suburbs":"Varsity Lakes, Reedy Creek","holdout_serious_count":0},"geometry":{"type":"Polygon","coordinates":[[[153.40722125240438,-28.10589536775773],[153.40720421073934,-28.101381901573745],[153.40211426120752,-28.101396916949117],[153.40213108987012,-28.105910385966762],[153.40722125240438,-28.10589536775773]]]}},{"type":"Feature","properties":{"cell_id":"1079_13811","clipped_area_km2":0.25,"serious_count":9,"density_count":0,"rank":18,"suburbs":"Southport","holdout_serious_count":2},"geometry":{"type":"Polygon","coordinates":[[[153.40672864111713,-27.9750036393484],[153.406711713422,-27.970490086847583],[153.40162791957582,-27.970505020146838],[153.40164463569297,-27.97501857547464],[153.40672864111713,-27.9750036393484]]]}},{"type":"Feature","properties":{"cell_id":"1080_13802","clipped_area_km2":0.25,"serious_count":8,"density_count":0,"rank":32,"suburbs":"Bundall, Surfers Paradise","holdout_serious_count":1},"geometry":{"type":"Polygon","coordinates":[[[153.41196707477187,-28.015610328315304],[153.41194989975116,-28.011096805438807],[153.40686420386444,-28.01111195233513],[153.4068811668666,-28.015625478076277],[153.41196707477187,-28.015610328315304]]]}},{"type":"Feature","properties":{"cell_id":"1080_13814","clipped_area_km2":0.25,"serious_count":10,"density_count":0,"rank":12,"suburbs":"Southport","holdout_serious_count":4},"geometry":{"type":"Polygon","coordinates":[[[153.4117612367087,-27.96144785753046],[153.41174410933974,-27.95693429897727],[153.40666095385103,-27.956949411516064],[153.40667786978963,-27.9614629729311],[153.4117612367087,-27.96144785753046]]]}},{"type":"Feature","properties":{"cell_id":"1080_13817","clipped_area_km2":0.25,"serious_count":8,"density_count":0,"rank":33,"suburbs":"Labrador","holdout_serious_count":0},"geometry":{"type":"Polygon","coordinates":[[[153.41170986650027,-27.947907172958192],[153.4116927510284,-27.943393605492936],[153.40661022953694,-27.943408709447574],[153.40662713372535,-27.947922279773984],[153.41170986650027,-27.947907172958192]]]}},{"type":"Feature","properties":{"cell_id":"1081_13805","clipped_area_km2":0.25,"serious_count":9,"density_count":0,"rank":19,"suburbs":"Bundall, Southport","holdout_serious_count":2},"geometry":{"type":"Polygon","coordinates":[[[153.41700082965693,-28.002054421519812],[153.41698345468797,-27.997540892619398],[153.4118983985353,-27.997556218961826],[153.41191556163358,-28.002069750761756],[153.41700082965693,-28.002054421519812]]]}},{"type":"Feature","properties":{"cell_id":"1081_13811","clipped_area_km2":0.25,"serious_count":11,"density_count":0,"rank":7,"suburbs":"Southport","holdout_serious_count":2},"geometry":{"type":"Polygon","coordinates":[[[153.41689664015576,-27.974973203512434],[153.41687928930682,-27.970459656772263],[153.41179550334866,-27.970474965722545],[153.41181264262104,-27.974988515360817],[153.41689664015576,-27.974973203512434]]]}},{"type":"Feature","properties":{"cell_id":"1081_13813","clipped_area_km2":0.25,"serious_count":8,"density_count":0,"rank":34,"suburbs":"Southport","holdout_serious_count":3},"geometry":{"type":"Polygon","coordinates":[[[153.41686194247535,-27.965946107059906],[153.41684459966066,-27.961432554375673],[153.4117612367087,-27.96144785753046],[153.4117783680448,-27.965961413112325],[153.41686194247535,-27.965946107059906]]]}},{"type":"Feature","properties":{"cell_id":"1083_13783","clipped_area_km2":0.25,"serious_count":8,"density_count":0,"rank":35,"suburbs":"Burleigh Waters, Burleigh Heads","holdout_serious_count":4},"geometry":{"type":"Polygon","coordinates":[[[153.42756396897622,-28.101319951496905],[153.4275460794454,-28.09680649402221],[153.42245635891854,-28.09682226185064],[153.42247403549908,-28.10133572230132],[153.42756396897622,-28.101319951496905]]]}},{"type":"Feature","properties":{"cell_id":"1083_13786","clipped_area_km2":0.25,"serious_count":8,"density_count":0,"rank":36,"suburbs":"Burleigh Waters, Varsity Lakes","holdout_serious_count":2},"geometry":{"type":"Polygon","coordinates":[[[153.42751031279107,-28.087779570128706],[153.4274924356661,-28.083266103710518],[153.42240335369485,-28.08328186261243],[153.42242101801716,-28.08779533200589],[153.42751031279107,-28.087779570128706]]]}},{"type":"Feature","properties":{"cell_id":"1083_13797","clipped_area_km2":0.25,"serious_count":11,"density_count":0,"rank":8,"suburbs":"Broadbeach Waters","holdout_serious_count":2},"geometry":{"type":"Polygon","coordinates":[[[153.42731389165513,-28.038131275650834],[153.42729605996172,-28.033617776464006],[153.42220931557392,-28.033633502654073],[153.42222693500545,-28.038147004813496],[153.42731389165513,-28.038131275650834]]]}},{"type":"Feature","properties":{"cell_id":"1083_13805","clipped_area_km2":0.25,"serious_count":10,"density_count":0,"rank":13,"suburbs":"Surfers Paradise","holdout_serious_count":0},"geometry":{"type":"Polygon","coordinates":[[[153.42717135358708,-28.00202319881555],[153.42715355487894,-27.997509675820886],[153.42206850681887,-27.997525378238898],[153.42208609365778,-28.002038904204223],[153.42717135358708,-28.00202319881555]]]}},{"type":"Feature","properties":{"cell_id":"1084_13801","clipped_area_km2":0.25,"serious_count":8,"density_count":0,"rank":37,"suburbs":"Surfers Paradise, Broadbeach","holdout_serious_count":1},"geometry":{"type":"Polygon","coordinates":[[[153.4323286934062,-28.020061355553697],[153.43231066614655,-28.015547847467644],[153.42722477443797,-28.015563749949013],[153.4272425896329,-28.020077261042285],[153.4323286934062,-28.020061355553697]]]}},{"type":"Feature","properties":{"cell_id":"1084_13803","clipped_area_km2":0.23457420392269357,"serious_count":8,"density_count":0,"rank":38,"suburbs":"Surfers Paradise","holdout_serious_count":1},"geometry":{"type":"Polygon","coordinates":[[[153.43229264305876,-28.011034336405526],[153.43227462414208,-28.00652082236765],[153.4271891564158,-28.00653671883533],[153.42720696336585,-28.011050235879928],[153.43229264305876,-28.011034336405526]]]}},{"type":"Feature","properties":{"cell_id":"1084_13804","clipped_area_km2":0.21448116171570586,"serious_count":10,"density_count":0,"rank":14,"suburbs":"Surfers Paradise","holdout_serious_count":2},"geometry":{"type":"Polygon","coordinates":[[[153.43227462414208,-28.00652082236765],[153.43225660939578,-28.00200730535435],[153.42717135358708,-28.00202319881555],[153.4271891564158,-28.00653671883533],[153.43227462414208,-28.00652082236765]]]}},{"type":"Feature","properties":{"cell_id":"1084_13805","clipped_area_km2":0.19017521240983212,"serious_count":13,"density_count":0,"rank":3,"suburbs":"Surfers Paradise","holdout_serious_count":3},"geometry":{"type":"Polygon","coordinates":[[[153.43225660939578,-28.00200730535435],[153.43223859881914,-27.99749378536592],[153.42715355487894,-27.997509675820886],[153.42717135358708,-28.00202319881555],[153.43225660939578,-28.00200730535435]]]}},{"type":"Feature","properties":{"cell_id":"1084_13806","clipped_area_km2":0.16968702078031375,"serious_count":9,"density_count":0,"rank":20,"suburbs":"Surfers Paradise","holdout_serious_count":6},"geometry":{"type":"Polygon","coordinates":[[[153.43223859881914,-27.99749378536592],[153.4322205924114,-27.99298026240268],[153.42713576029067,-27.99299614985166],[153.42715355487894,-27.997509675820886],[153.43223859881914,-27.99749378536592]]]}},{"type":"Feature","properties":{"cell_id":"1087_13788","clipped_area_km2":0.23067031367384136,"serious_count":8,"density_count":0,"rank":39,"suburbs":"Miami, Burleigh Heads","holdout_serious_count":3},"geometry":{"type":"Polygon","coordinates":[[[153.4478299977235,-28.078687723832847],[153.44781127805592,-28.07417426370921],[153.44272263836683,-28.07419077122622],[153.44274114533314,-28.07870423446712],[153.4478299977235,-28.078687723832847]]]}}]}
