{
"type": "FeatureCollection",
"name": "shortlist",
"crs": { "type": "name", "properties": { "name": "urn:ogc:def:crs:OGC:1.3:CRS84" } },
"features": [
{ "type": "Feature", "properties": { "cell_id": "1045_13863", "clipped_area_km2": 0.25, "serious_count": 7, "rank": 40, "suburbs": "Yatala, Stapylton", "holdout_serious_count": 1 }, "geometry": { "type": "Polygon", "coordinates": [ [ [ 153.233367404953981, -27.740693458045488 ], [ 153.23335778791423, -27.736179675584385 ], [ 153.228284825658648, -27.736188138575709 ], [ 153.228294233638195, -27.740701922648054 ], [ 153.233367404953981, -27.740693458045488 ] ] ] } },
{ "type": "Feature", "properties": { "cell_id": "1047_13859", "clipped_area_km2": 0.25, "serious_count": 8, "rank": 21, "suburbs": "Ormeau, Yatala", "holdout_serious_count": 0 }, "geometry": { "type": "Polygon", "coordinates": [ [ [ 153.243553904783568, -27.758731057778554 ], [ 153.243543860299297, -27.754217290446899 ], [ 153.238470066029493, -27.754226132157093 ], [ 153.238479901260035, -27.758739901171349 ], [ 153.243553904783568, -27.758731057778554 ] ] ] } },
{ "type": "Feature", "properties": { "cell_id": "1050_13852", "clipped_area_km2": 0.25, "serious_count": 8, "rank": 22, "suburbs": "Ormeau", "holdout_serious_count": 1 }, "geometry": { "type": "Polygon", "coordinates": [ [ [ 153.25885067627712, -27.790299662414622 ], [ 153.258839986678396, -27.785785921009769 ], [ 153.253764733762239, -27.785795333652359 ], [ 153.253775213768222, -27.790309076847084 ], [ 153.25885067627712, -27.790299662414622 ] ] ] } },
{ "type": "Feature", "properties": { "cell_id": "1060_13836", "clipped_area_km2": 0.25, "serious_count": 9, "rank": 15, "suburbs": "Upper Coomera, Coomera", "holdout_serious_count": 1 }, "geometry": { "type": "Polygon", "coordinates": [ [ [ 153.309810128839501, -27.862414407912031 ], [ 153.30979729579397, -27.857900733676725 ], [ 153.304718710623661, -27.857912044463582 ], [ 153.304731333301874, -27.862425720845934 ], [ 153.309810128839501, -27.862414407912031 ] ] ] } },
{ "type": "Feature", "properties": { "cell_id": "1060_13837", "clipped_area_km2": 0.25, "serious_count": 8, "rank": 23, "suburbs": "Coomera, Upper Coomera", "holdout_serious_count": 4 }, "geometry": { "type": "Polygon", "coordinates": [ [ [ 153.30979729579397, -27.857900733676725 ], [ 153.309784465723908, -27.853387056481452 ], [ 153.304706090872173, -27.853398365121429 ], [ 153.304718710623661, -27.857912044463582 ], [ 153.30979729579397, -27.857900733676725 ] ] ] } },
{ "type": "Feature", "properties": { "cell_id": "1061_13832", "clipped_area_km2": 0.25, "serious_count": 11, "rank": 4, "suburbs": "Oxenford, Upper Coomera", "holdout_serious_count": 1 }, "geometry": { "type": "Polygon", "coordinates": [ [ [ 153.314941125304074, -27.880457566599077 ], [ 153.314928069789289, -27.875943906390074 ], [ 153.309848645834421, -27.875955412854925 ], [ 153.309861490787227, -27.88046907524717 ], [ 153.314941125304074, -27.880457566599077 ] ] ] } },
{ "type": "Feature", "properties": { "cell_id": "1061_13835", "clipped_area_km2": 0.25, "serious_count": 10, "rank": 9, "suburbs": "Coomera, Upper Coomera", "holdout_serious_count": 1 }, "geometry": { "type": "Polygon", "coordinates": [ [ [ 153.314901967838324, -27.866916577088144 ], [ 153.314888921401177, -27.862402907995847 ], [ 153.309810128839501, -27.862414407912031 ], [ 153.309822964861098, -27.866928079187037 ], [ 153.314901967838324, -27.866916577088144 ] ] ] } },
{ "type": "Feature", "properties": { "cell_id": "1062_13826", "clipped_area_km2": 0.25, "serious_count": 15, "rank": 2, "suburbs": "Helensvale, Oxenford", "holdout_serious_count": 8 }, "geometry": { "type": "Polygon", "coordinates": [ [ [ 153.320100417861966, -27.907527756557588 ], [ 153.320087133322914, -27.903014116343513 ], [ 153.31500644829319, -27.903025823211845 ], [ 153.315019521977746, -27.907539465645726 ], [ 153.320100417861966, -27.907527756557588 ] ] ] } },
{ "type": "Feature", "properties": { "cell_id": "1062_13830", "clipped_area_km2": 0.25, "serious_count": 17, "rank": 1, "suburbs": "Helensvale, Oxenford", "holdout_serious_count": 5 }, "geometry": { "type": "Polygon", "coordinates": [ [ [ 153.320047298174444, -27.889473177921637 ], [ 153.320034025946057, -27.884959525855503 ], [ 153.314954183845856, -27.88497122384635 ], [ 153.314967245415119, -27.889484878131583 ], [ 153.320047298174444, -27.889473177921637 ] ] ] } },
{ "type": "Feature", "properties": { "cell_id": "1062_13831", "clipped_area_km2": 0.25, "serious_count": 8, "rank": 24, "suburbs": "Helensvale, Oxenford", "holdout_serious_count": 3 }, "geometry": { "type": "Polygon", "coordinates": [ [ [ 153.320034025946057, -27.884959525855503 ], [ 153.320020756794008, -27.880445870827153 ], [ 153.314941125304074, -27.880457566599077 ], [ 153.314954183845856, -27.88497122384635 ], [ 153.320034025946057, -27.884959525855503 ] ] ] } },
{ "type": "Feature", "properties": { "cell_id": "1066_13806", "clipped_area_km2": 0.25, "serious_count": 8, "rank": 25, "suburbs": "Nerang", "holdout_serious_count": 0 }, "geometry": { "type": "Polygon", "coordinates": [ [ [ 153.340707217573367, -27.997751043462582 ], [ 153.340693024020936, -27.993237471833851 ], [ 153.33560812525775, -27.993249975177289 ], [ 153.33562210697886, -27.997763549171729 ], [ 153.340707217573367, -27.997751043462582 ] ] ] } },
{ "type": "Feature", "properties": { "cell_id": "1066_13807", "clipped_area_km2": 0.25, "serious_count": 9, "rank": 16, "suburbs": "Nerang", "holdout_serious_count": 5 }, "geometry": { "type": "Polygon", "coordinates": [ [ [ 153.340693024020936, -27.993237471833851 ], [ 153.340678833754112, -27.988723897234578 ], [ 153.335594146773161, -27.988736398212499 ], [ 153.33560812525775, -27.993249975177289 ], [ 153.340693024020936, -27.993237471833851 ] ] ] } },
{ "type": "Feature", "properties": { "cell_id": "1066_13822", "clipped_area_km2": 0.25, "serious_count": 8, "rank": 26, "suburbs": "Helensvale", "holdout_serious_count": 0 }, "geometry": { "type": "Polygon", "coordinates": [ [ [ 153.340480514677211, -27.925533541114657 ], [ 153.340466373624054, -27.921019921995107 ], [ 153.335384857499093, -27.921032387513275 ], [ 153.335398787504431, -27.925546008995479 ], [ 153.340480514677211, -27.925533541114657 ] ] ] } },
{ "type": "Feature", "properties": { "cell_id": "1067_13810", "clipped_area_km2": 0.25, "serious_count": 9, "rank": 17, "suburbs": "Nerang, Gaven", "holdout_serious_count": 2 }, "geometry": { "type": "Polygon", "coordinates": [ [ [ 153.345734723354383, -27.9796840549749 ], [ 153.345720331306126, -27.97517047386641 ], [ 153.340636282661166, -27.975183155616701 ], [ 153.34065046307478, -27.9796967391257 ], [ 153.345734723354383, -27.9796840549749 ] ] ] } },
{ "type": "Feature", "properties": { "cell_id": "1067_13815", "clipped_area_km2": 0.25, "serious_count": 10, "rank": 10, "suburbs": "Gaven, Arundel", "holdout_serious_count": 1 }, "geometry": { "type": "Polygon", "coordinates": [ [ [ 153.345662796429536, -27.957116119740864 ], [ 153.345648421036572, -27.952602523788151 ], [ 153.340565429830036, -27.952615193538854 ], [ 153.34057959383324, -27.957128791891101 ], [ 153.345662796429536, -27.957116119740864 ] ] ] } },
{ "type": "Feature", "properties": { "cell_id": "1067_13816", "clipped_area_km2": 0.25, "serious_count": 11, "rank": 5, "suburbs": "Arundel, Gaven", "holdout_serious_count": 6 }, "geometry": { "type": "Polygon", "coordinates": [ [ [ 153.345648421036572, -27.952602523788151 ], [ 153.345634048972897, -27.948088924867541 ], [ 153.340551269107124, -27.948101592218915 ], [ 153.340565429830036, -27.952615193538854 ], [ 153.345648421036572, -27.952602523788151 ] ] ] } },
{ "type": "Feature", "properties": { "cell_id": "1072_13803", "clipped_area_km2": 0.25, "serious_count": 8, "rank": 27, "suburbs": "Carrara", "holdout_serious_count": 3 }, "geometry": { "type": "Polygon", "coordinates": [ [ [ 153.371264225482804, -28.011212712494789 ], [ 153.371248750211947, -28.00669916472447 ], [ 153.366163236267539, -28.006712803859223 ], [ 153.366178499563631, -28.011226354209313 ], [ 153.371264225482804, -28.011212712494789 ] ] ] } },
{ "type": "Feature", "properties": { "cell_id": "1072_13809", "clipped_area_km2": 0.25, "serious_count": 8, "rank": 28, "suburbs": "Molendinar, Ashmore", "holdout_serious_count": 0 }, "geometry": { "type": "Polygon", "coordinates": [ [ [ 153.371171427570061, -27.984131381288741 ], [ 153.371155973779764, -27.979617815686971 ], [ 153.366071730654397, -27.979631439347511 ], [ 153.366086972764094, -27.98414500752779 ], [ 153.371171427570061, -27.984131381288741 ] ] ] } },
{ "type": "Feature", "properties": { "cell_id": "1073_13820", "clipped_area_km2": 0.25, "serious_count": 10, "rank": 11, "suburbs": "Coombabah, Arundel", "holdout_serious_count": 1 }, "geometry": { "type": "Polygon", "coordinates": [ [ [ 153.376083757996582, -27.934468210894995 ], [ 153.376068132386564, -27.929954615243442 ], [ 153.370986218086216, -27.92996839806365 ], [ 153.371001632554851, -27.934481996326948 ], [ 153.376083757996582, -27.934468210894995 ] ] ] } },
{ "type": "Feature", "properties": { "cell_id": "1074_13810", "clipped_area_km2": 0.25, "serious_count": 11, "rank": 6, "suburbs": "Ashmore, Molendinar", "holdout_serious_count": 1 }, "geometry": { "type": "Polygon", "coordinates": [ [ [ 153.381324449247813, -27.979590004664871 ], [ 153.381308575774113, -27.975076441355583 ], [ 153.37622455148383, -27.975090438167218 ], [ 153.376240213327236, -27.979604004125932 ], [ 153.381324449247813, -27.979590004664871 ] ] ] } },
{ "type": "Feature", "properties": { "cell_id": "1074_13813", "clipped_area_km2": 0.25, "serious_count": 8, "rank": 29, "suburbs": "Molendinar, Southport", "holdout_serious_count": 0 }, "geometry": { "type": "Polygon", "coordinates": [ [ [ 153.381276839851722, -27.966049305824566 ], [ 153.381260977401752, -27.961535733603469 ], [ 153.376177587708469, -27.961549722468128 ], [ 153.376193238675086, -27.966063297338003 ], [ 153.381276839851722, -27.966049305824566 ] ] ] } },
{ "type": "Feature", "properties": { "cell_id": "1076_13810", "clipped_area_km2": 0.25, "serious_count": 8, "rank": 30, "suburbs": "Southport, Ashmore", "holdout_serious_count": 0 }, "geometry": { "type": "Polygon", "coordinates": [ [ [ 153.391492910012374, -27.97956144204473 ], [ 153.391476613279991, -27.975047884140967 ], [ 153.386392596389186, -27.975062256679998 ], [ 153.386408681492526, -27.979575817304298 ], [ 153.391492910012374, -27.97956144204473 ] ] ] } },
{ "type": "Feature", "properties": { "cell_id": "1079_13782", "clipped_area_km2": 0.25, "serious_count": 8, "rank": 31, "suburbs": "Varsity Lakes, Reedy Creek", "holdout_serious_count": 0 }, "geometry": { "type": "Polygon", "coordinates": [ [ [ 153.407221252404383, -28.105895367757729 ], [ 153.407204210739337, -28.101381901573745 ], [ 153.402114261207515, -28.101396916949117 ], [ 153.402131089870124, -28.105910385966762 ], [ 153.407221252404383, -28.105895367757729 ] ] ] } },
{ "type": "Feature", "properties": { "cell_id": "1079_13811", "clipped_area_km2": 0.25, "serious_count": 9, "rank": 18, "suburbs": "Southport", "holdout_serious_count": 2 }, "geometry": { "type": "Polygon", "coordinates": [ [ [ 153.406728641117127, -27.975003639348401 ], [ 153.406711713421998, -27.970490086847583 ], [ 153.401627919575816, -27.970505020146838 ], [ 153.401644635692975, -27.975018575474639 ], [ 153.406728641117127, -27.975003639348401 ] ] ] } },
{ "type": "Feature", "properties": { "cell_id": "1080_13802", "clipped_area_km2": 0.25, "serious_count": 8, "rank": 32, "suburbs": "Bundall, Surfers Paradise", "holdout_serious_count": 1 }, "geometry": { "type": "Polygon", "coordinates": [ [ [ 153.411967074771866, -28.015610328315304 ], [ 153.411949899751164, -28.011096805438807 ], [ 153.406864203864444, -28.011111952335131 ], [ 153.406881166866611, -28.015625478076277 ], [ 153.411967074771866, -28.015610328315304 ] ] ] } },
{ "type": "Feature", "properties": { "cell_id": "1080_13814", "clipped_area_km2": 0.25, "serious_count": 10, "rank": 12, "suburbs": "Southport", "holdout_serious_count": 4 }, "geometry": { "type": "Polygon", "coordinates": [ [ [ 153.411761236708713, -27.961447857530459 ], [ 153.411744109339736, -27.95693429897727 ], [ 153.406660953851031, -27.956949411516064 ], [ 153.406677869789632, -27.961462972931098 ], [ 153.411761236708713, -27.961447857530459 ] ] ] } },
{ "type": "Feature", "properties": { "cell_id": "1080_13817", "clipped_area_km2": 0.25, "serious_count": 8, "rank": 33, "suburbs": "Labrador", "holdout_serious_count": 0 }, "geometry": { "type": "Polygon", "coordinates": [ [ [ 153.411709866500274, -27.947907172958192 ], [ 153.411692751028397, -27.943393605492936 ], [ 153.406610229536938, -27.943408709447574 ], [ 153.406627133725351, -27.947922279773984 ], [ 153.411709866500274, -27.947907172958192 ] ] ] } },
{ "type": "Feature", "properties": { "cell_id": "1081_13805", "clipped_area_km2": 0.25, "serious_count": 9, "rank": 19, "suburbs": "Bundall, Southport", "holdout_serious_count": 2 }, "geometry": { "type": "Polygon", "coordinates": [ [ [ 153.417000829656928, -28.002054421519812 ], [ 153.416983454687966, -27.997540892619398 ], [ 153.4118983985353, -27.997556218961826 ], [ 153.411915561633577, -28.002069750761756 ], [ 153.417000829656928, -28.002054421519812 ] ] ] } },
{ "type": "Feature", "properties": { "cell_id": "1081_13811", "clipped_area_km2": 0.25, "serious_count": 11, "rank": 7, "suburbs": "Southport", "holdout_serious_count": 2 }, "geometry": { "type": "Polygon", "coordinates": [ [ [ 153.416896640155755, -27.974973203512434 ], [ 153.41687928930682, -27.970459656772263 ], [ 153.411795503348657, -27.970474965722545 ], [ 153.411812642621044, -27.974988515360817 ], [ 153.416896640155755, -27.974973203512434 ] ] ] } },
{ "type": "Feature", "properties": { "cell_id": "1081_13813", "clipped_area_km2": 0.25, "serious_count": 8, "rank": 34, "suburbs": "Southport", "holdout_serious_count": 3 }, "geometry": { "type": "Polygon", "coordinates": [ [ [ 153.41686194247535, -27.965946107059906 ], [ 153.416844599660664, -27.961432554375673 ], [ 153.411761236708713, -27.961447857530459 ], [ 153.411778368044793, -27.965961413112325 ], [ 153.41686194247535, -27.965946107059906 ] ] ] } },
{ "type": "Feature", "properties": { "cell_id": "1083_13783", "clipped_area_km2": 0.25, "serious_count": 8, "rank": 35, "suburbs": "Burleigh Waters, Burleigh Heads", "holdout_serious_count": 4 }, "geometry": { "type": "Polygon", "coordinates": [ [ [ 153.427563968976216, -28.101319951496905 ], [ 153.427546079445392, -28.096806494022211 ], [ 153.422456358918538, -28.09682226185064 ], [ 153.422474035499079, -28.101335722301322 ], [ 153.427563968976216, -28.101319951496905 ] ] ] } },
{ "type": "Feature", "properties": { "cell_id": "1083_13786", "clipped_area_km2": 0.25, "serious_count": 8, "rank": 36, "suburbs": "Burleigh Waters, Varsity Lakes", "holdout_serious_count": 2 }, "geometry": { "type": "Polygon", "coordinates": [ [ [ 153.427510312791071, -28.087779570128706 ], [ 153.427492435666096, -28.083266103710518 ], [ 153.422403353694847, -28.083281862612431 ], [ 153.422421018017161, -28.087795332005889 ], [ 153.427510312791071, -28.087779570128706 ] ] ] } },
{ "type": "Feature", "properties": { "cell_id": "1083_13797", "clipped_area_km2": 0.25, "serious_count": 11, "rank": 8, "suburbs": "Broadbeach Waters", "holdout_serious_count": 2 }, "geometry": { "type": "Polygon", "coordinates": [ [ [ 153.427313891655132, -28.038131275650834 ], [ 153.427296059961719, -28.033617776464006 ], [ 153.422209315573923, -28.033633502654073 ], [ 153.422226935005455, -28.038147004813496 ], [ 153.427313891655132, -28.038131275650834 ] ] ] } },
{ "type": "Feature", "properties": { "cell_id": "1083_13805", "clipped_area_km2": 0.25, "serious_count": 10, "rank": 13, "suburbs": "Surfers Paradise", "holdout_serious_count": 0 }, "geometry": { "type": "Polygon", "coordinates": [ [ [ 153.427171353587084, -28.00202319881555 ], [ 153.427153554878942, -27.997509675820886 ], [ 153.422068506818874, -27.997525378238898 ], [ 153.422086093657782, -28.002038904204223 ], [ 153.427171353587084, -28.00202319881555 ] ] ] } },
{ "type": "Feature", "properties": { "cell_id": "1084_13801", "clipped_area_km2": 0.25, "serious_count": 8, "rank": 37, "suburbs": "Surfers Paradise, Broadbeach", "holdout_serious_count": 1 }, "geometry": { "type": "Polygon", "coordinates": [ [ [ 153.432328693406191, -28.020061355553697 ], [ 153.432310666146549, -28.015547847467644 ], [ 153.427224774437974, -28.015563749949013 ], [ 153.427242589632897, -28.020077261042285 ], [ 153.432328693406191, -28.020061355553697 ] ] ] } },
{ "type": "Feature", "properties": { "cell_id": "1084_13803", "clipped_area_km2": 0.23457420392269357, "serious_count": 8, "rank": 38, "suburbs": "Surfers Paradise", "holdout_serious_count": 1 }, "geometry": { "type": "Polygon", "coordinates": [ [ [ 153.432292643058759, -28.011034336405526 ], [ 153.432274624142082, -28.006520822367651 ], [ 153.427189156415807, -28.006536718835331 ], [ 153.427206963365848, -28.011050235879928 ], [ 153.432292643058759, -28.011034336405526 ] ] ] } },
{ "type": "Feature", "properties": { "cell_id": "1084_13804", "clipped_area_km2": 0.21448116171570586, "serious_count": 10, "rank": 14, "suburbs": "Surfers Paradise", "holdout_serious_count": 2 }, "geometry": { "type": "Polygon", "coordinates": [ [ [ 153.432274624142082, -28.006520822367651 ], [ 153.432256609395779, -28.002007305354351 ], [ 153.427171353587084, -28.00202319881555 ], [ 153.427189156415807, -28.006536718835331 ], [ 153.432274624142082, -28.006520822367651 ] ] ] } },
{ "type": "Feature", "properties": { "cell_id": "1084_13805", "clipped_area_km2": 0.19017521240983212, "serious_count": 13, "rank": 3, "suburbs": "Surfers Paradise", "holdout_serious_count": 3 }, "geometry": { "type": "Polygon", "coordinates": [ [ [ 153.432256609395779, -28.002007305354351 ], [ 153.43223859881914, -27.997493785365918 ], [ 153.427153554878942, -27.997509675820886 ], [ 153.427171353587084, -28.00202319881555 ], [ 153.432256609395779, -28.002007305354351 ] ] ] } },
{ "type": "Feature", "properties": { "cell_id": "1084_13806", "clipped_area_km2": 0.16968702078031375, "serious_count": 9, "rank": 20, "suburbs": "Surfers Paradise", "holdout_serious_count": 6 }, "geometry": { "type": "Polygon", "coordinates": [ [ [ 153.43223859881914, -27.997493785365918 ], [ 153.432220592411397, -27.992980262402678 ], [ 153.427135760290668, -27.99299614985166 ], [ 153.427153554878942, -27.997509675820886 ], [ 153.43223859881914, -27.997493785365918 ] ] ] } },
{ "type": "Feature", "properties": { "cell_id": "1087_13788", "clipped_area_km2": 0.23067031367384136, "serious_count": 8, "rank": 39, "suburbs": "Miami, Burleigh Heads", "holdout_serious_count": 3 }, "geometry": { "type": "Polygon", "coordinates": [ [ [ 153.447829997723488, -28.078687723832847 ], [ 153.447811278055923, -28.07417426370921 ], [ 153.442722638366831, -28.07419077122622 ], [ 153.442741145333144, -28.078704234467121 ], [ 153.447829997723488, -28.078687723832847 ] ] ] } }
]
}
